ONEWEB-0279             
1 48997U 21060AG  25269.94428830  .00000139  00000+0  32918-3 0  9996
2 48997  87.8968 281.2250 0001500  91.1468 268.9835 13.16594075204985
ONEWEB-0280             
1 48998U 21060AH  25269.73135337  .00000167  00000+0  40391-3 0  9996
2 48998  87.8967 281.2757 0001802 102.6985 257.4348 13.16594321204890
ONEWEB-0281             
1 48999U 21060AJ  25269.58490569 -.00000978  00000+0 -25935-2 0  9999
2 48999  87.8974 281.3023 0001529  95.9081 264.2224 13.16594500204947
ONEWEB-0282             
1 49000U 21060AK  25269.53896954  .00000007  00000+0 -15974-4 0  9992
2 49000  87.8969 281.3210 0001747  97.1796 262.9534 13.16595559204913
ONEWEB-0283             
1 49001U 21060AL  25269.52787894 -.00000293  00000+0 -79959-3 0  9994
2 49001  87.8965 281.3250 0001672  92.5563 267.5759 13.16593562204925
ONEWEB-0284             
1 49002U 21060AM  25269.06557435 -.00000028  00000+0 -10666-3 0  9996
2 49002  87.8977 281.4001 0002060  97.8644 262.2721 13.16595653204849
ONEWEB-0285             
1 49075U 21075A   25269.88961580  .00000269  00000+0  71221-3 0  9991
2 49075  87.8929  42.9650 0001620  98.9829 261.1483 13.12445022200674
ONEWEB-0286             
1 49076U 21075B   25269.87148799 -.00000363  00000+0 -10439-2 0  9990
2 49076  87.8933  43.0044 0001764  93.9760 266.1570 13.12443197200029
ONEWEB-0287             
1 49077U 21075C   25269.66814692  .00000075  00000+0  15973-3 0  9997
2 49077  87.9073  58.2723 0001955  88.8649 271.2706 13.17649445198921
ONEWEB-0288             
1 49078U 21075D   25269.92353928 -.00000108  00000+0 -33500-3 0  9992
2 49078  87.8926  42.9529 0001799 100.5845 259.5486 13.12440609200652
ONEWEB-0289             
1 49079U 21075E   25269.93462420  .00000070  00000+0  14677-3 0  9992
2 49079  87.9065  58.2430 0001827 107.8867 252.2464 13.17649017199534
ONEWEB-0290             
1 49080U 21075F   25269.90777017  .00000013  00000+0 -62288-6 0  9994
2 49080  87.9072  58.2039 0001705 116.1336 243.9971 13.17647948198943
ONEWEB-0291             
1 49081U 21075G   25269.66478154 -.00000016  00000+0 -73699-4 0  9998
2 49081  87.9074  58.2574 0002049  97.3151 262.8214 13.17648294198908
ONEWEB-0293             
1 49082U 21075H   25269.91789458  .00000005  00000+0 -19154-4 0  9992
2 49082  87.9067  58.2349 0001696  99.1260 261.0064 13.17647697198965
ONEWEB-0294             
1 49083U 21075J   25269.93001739 -.00000285  00000+0 -82724-3 0  9997
2 49083  87.8926  42.9523 0001882 112.6445 247.4883 13.12443565200049
ONEWEB-0295             
1 49084U 21075K   25269.91705110 -.00000021  00000+0 -88230-4 0  9997
2 49084  87.9070  58.2391 0002036  94.1335 266.0030 13.17648618198923
