[{"OBJECT_NAME":"ONEWEB-0279","OBJECT_ID":"2021-060AG","EPOCH":"2025-09-26T22:39:46.509120","MEAN_MOTION":13.16594075,"ECCENTRICITY":0.00015009,"INCLINATION":87.8968,"RA_OF_ASC_NODE":281.225,"ARG_OF_PERICENTER":91.1468,"MEAN_ANOMALY":268.9835,"EPHEMERIS_TYPE":0,"CLASSIFICATION_TYPE":"U","NORAD_CAT_ID":48997,"ELEMENT_SET_NO":999,"REV_AT_EPOCH":20498,"BSTAR":0.0003291817,"MEAN_MOTION_DOT":1.39e-6,"MEAN_MOTION_DDOT":0},{"OBJECT_NAME":"ONEWEB-0280","OBJECT_ID":"2021-060AH","EPOCH":"2025-09-26T17:33:08.931168","MEAN_MOTION":13.16594321,"ECCENTRICITY":0.00018024,"INCLINATION":87.8967,"RA_OF_ASC_NODE":281.2757,"ARG_OF_PERICENTER":102.6985,"MEAN_ANOMALY":257.4348,"EPHEMERIS_TYPE":0,"CLASSIFICATION_TYPE":"U","NORAD_CAT_ID":48998,"ELEMENT_SET_NO":999,"REV_AT_EPOCH":20489,"BSTAR":0.00040390685,"MEAN_MOTION_DOT":1.67e-6,"MEAN_MOTION_DDOT":0},{"OBJECT_NAME":"ONEWEB-0281","OBJECT_ID":"2021-060AJ","EPOCH":"2025-09-26T14:02:15.851616","MEAN_MOTION":13.165945,"ECCENTRICITY":0.00015296,"INCLINATION":87.8974,"RA_OF_ASC_NODE":281.3023,"ARG_OF_PERICENTER":95.9081,"MEAN_ANOMALY":264.2224,"EPHEMERIS_TYPE":0,"CLASSIFICATION_TYPE":"U","NORAD_CAT_ID":48999,"ELEMENT_SET_NO":999,"REV_AT_EPOCH":20494,"BSTAR":-0.0025934546,"MEAN_MOTION_DOT":-9.78e-6,"MEAN_MOTION_DDOT":0},{"OBJECT_NAME":"ONEWEB-0282","OBJECT_ID":"2021-060AK","EPOCH":"2025-09-26T12:56:06.968256","MEAN_MOTION":13.16595559,"ECCENTRICITY":0.00017473,"INCLINATION":87.8969,"RA_OF_ASC_NODE":281.321,"ARG_OF_PERICENTER":97.1796,"MEAN_ANOMALY":262.9534,"EPHEMERIS_TYPE":0,"CLASSIFICATION_TYPE":"U","NORAD_CAT_ID":49000,"ELEMENT_SET_NO":999,"REV_AT_EPOCH":20491,"BSTAR":-1.5974142e-5,"MEAN_MOTION_DOT":7.0e-8,"MEAN_MOTION_DDOT":0},{"OBJECT_NAME":"ONEWEB-0283","OBJECT_ID":"2021-060AL","EPOCH":"2025-09-26T12:40:08.740416","MEAN_MOTION":13.16593562,"ECCENTRICITY":0.00016725,"INCLINATION":87.8965,"RA_OF_ASC_NODE":281.325,"ARG_OF_PERICENTER":92.5563,"MEAN_ANOMALY":267.5759,"EPHEMERIS_TYPE":0,"CLASSIFICATION_TYPE":"U","NORAD_CAT_ID":49001,"ELEMENT_SET_NO":999,"REV_AT_EPOCH":20492,"BSTAR":-0.0007995881,"MEAN_MOTION_DOT":-2.93e-6,"MEAN_MOTION_DDOT":0},{"OBJECT_NAME":"ONEWEB-0284","OBJECT_ID":"2021-060AM","EPOCH":"2025-09-26T01:34:25.623840","MEAN_MOTION":13.16595653,"ECCENTRICITY":0.00020602,"INCLINATION":87.8977,"RA_OF_ASC_NODE":281.4001,"ARG_OF_PERICENTER":97.8644,"MEAN_ANOMALY":262.2721,"EPHEMERIS_TYPE":0,"CLASSIFICATION_TYPE":"U","NORAD_CAT_ID":49002,"ELEMENT_SET_NO":999,"REV_AT_EPOCH":20484,"BSTAR":-0.00010665798,"MEAN_MOTION_DOT":-2.8e-7,"MEAN_MOTION_DDOT":0},{"OBJECT_NAME":"ONEWEB-0285","OBJECT_ID":"2021-075A","EPOCH":"2025-09-26T21:21:02.805120","MEAN_MOTION":13.12445022,"ECCENTRICITY":0.00016206,"INCLINATION":87.8929,"RA_OF_ASC_NODE":42.965,"ARG_OF_PERICENTER":98.9829,"MEAN_ANOMALY":261.1483,"EPHEMERIS_TYPE":0,"CLASSIFICATION_TYPE":"U","NORAD_CAT_ID":49075,"ELEMENT_SET_NO":999,"REV_AT_EPOCH":20067,"BSTAR":0.00071220848,"MEAN_MOTION_DOT":2.69e-6,"MEAN_MOTION_DDOT":0},{"OBJECT_NAME":"ONEWEB-0286","OBJECT_ID":"2021-075B","EPOCH":"2025-09-26T20:54:56.562336","MEAN_MOTION":13.12443197,"ECCENTRICITY":0.00017643,"INCLINATION":87.8933,"RA_OF_ASC_NODE":43.0044,"ARG_OF_PERICENTER":93.976,"MEAN_ANOMALY":266.157,"EPHEMERIS_TYPE":0,"CLASSIFICATION_TYPE":"U","NORAD_CAT_ID":49076,"ELEMENT_SET_NO":999,"REV_AT_EPOCH":20002,"BSTAR":-0.0010438618,"MEAN_MOTION_DOT":-3.63e-6,"MEAN_MOTION_DDOT":0},{"OBJECT_NAME":"ONEWEB-0287","OBJECT_ID":"2021-075C","EPOCH":"2025-09-26T16:02:07.893888","MEAN_MOTION":13.17649445,"ECCENTRICITY":0.00019558,"INCLINATION":87.9073,"RA_OF_ASC_NODE":58.2723,"ARG_OF_PERICENTER":88.8649,"MEAN_ANOMALY":271.2706,"EPHEMERIS_TYPE":0,"CLASSIFICATION_TYPE":"U","NORAD_CAT_ID":49077,"ELEMENT_SET_NO":999,"REV_AT_EPOCH":19892,"BSTAR":0.00015972855,"MEAN_MOTION_DOT":7.5e-7,"MEAN_MOTION_DDOT":0},{"OBJECT_NAME":"ONEWEB-0288","OBJECT_ID":"2021-075D","EPOCH":"2025-09-26T22:09:53.793792","MEAN_MOTION":13.12440609,"ECCENTRICITY":0.00017992,"INCLINATION":87.8926,"RA_OF_ASC_NODE":42.9529,"ARG_OF_PERICENTER":100.5845,"MEAN_ANOMALY":259.5486,"EPHEMERIS_TYPE":0,"CLASSIFICATION_TYPE":"U","NORAD_CAT_ID":49078,"ELEMENT_SET_NO":999,"REV_AT_EPOCH":20065,"BSTAR":-0.00033499541,"MEAN_MOTION_DOT":-1.08e-6,"MEAN_MOTION_DDOT":0},{"OBJECT_NAME":"ONEWEB-0289","OBJECT_ID":"2021-075E","EPOCH":"2025-09-26T22:25:51.530880","MEAN_MOTION":13.17649017,"ECCENTRICITY":0.00018272,"INCLINATION":87.9065,"RA_OF_ASC_NODE":58.243,"ARG_OF_PERICENTER":107.8867,"MEAN_ANOMALY":252.2464,"EPHEMERIS_TYPE":0,"CLASSIFICATION_TYPE":"U","NORAD_CAT_ID":49079,"ELEMENT_SET_NO":999,"REV_AT_EPOCH":19953,"BSTAR":0.00014676721,"MEAN_MOTION_DOT":7.0e-7,"MEAN_MOTION_DDOT":0},{"OBJECT_NAME":"ONEWEB-0290","OBJECT_ID":"2021-075F","EPOCH":"2025-09-26T21:47:11.342688","MEAN_MOTION":13.17647948,"ECCENTRICITY":0.0001705,"INCLINATION":87.9072,"RA_OF_ASC_NODE":58.2039,"ARG_OF_PERICENTER":116.1336,"MEAN_ANOMALY":243.9971,"EPHEMERIS_TYPE":0,"CLASSIFICATION_TYPE":"U","NORAD_CAT_ID":49080,"ELEMENT_SET_NO":999,"REV_AT_EPOCH":19894,"BSTAR":-6.22877e-7,"MEAN_MOTION_DOT":1.3e-7,"MEAN_MOTION_DDOT":0},{"OBJECT_NAME":"ONEWEB-0291","OBJECT_ID":"2021-075G","EPOCH":"2025-09-26T15:57:17.125056","MEAN_MOTION":13.17648294,"ECCENTRICITY":0.00020491,"INCLINATION":87.9074,"RA_OF_ASC_NODE":58.2574,"ARG_OF_PERICENTER":97.3151,"MEAN_ANOMALY":262.8214,"EPHEMERIS_TYPE":0,"CLASSIFICATION_TYPE":"U","NORAD_CAT_ID":49081,"ELEMENT_SET_NO":999,"REV_AT_EPOCH":19890,"BSTAR":-7.3698941e-5,"MEAN_MOTION_DOT":-1.6e-7,"MEAN_MOTION_DDOT":0},{"OBJECT_NAME":"ONEWEB-0293","OBJECT_ID":"2021-075H","EPOCH":"2025-09-26T22:01:46.091712","MEAN_MOTION":13.17647697,"ECCENTRICITY":0.00016964,"INCLINATION":87.9067,"RA_OF_ASC_NODE":58.2349,"ARG_OF_PERICENTER":99.126,"MEAN_ANOMALY":261.0064,"EPHEMERIS_TYPE":0,"CLASSIFICATION_TYPE":"U","NORAD_CAT_ID":49082,"ELEMENT_SET_NO":999,"REV_AT_EPOCH":19896,"BSTAR":-1.9154318e-5,"MEAN_MOTION_DOT":5.0e-8,"MEAN_MOTION_DDOT":0},{"OBJECT_NAME":"ONEWEB-0294","OBJECT_ID":"2021-075J","EPOCH":"2025-09-26T22:19:13.502496","MEAN_MOTION":13.12443565,"ECCENTRICITY":0.00018826,"INCLINATION":87.8926,"RA_OF_ASC_NODE":42.9523,"ARG_OF_PERICENTER":112.6445,"MEAN_ANOMALY":247.4883,"EPHEMERIS_TYPE":0,"CLASSIFICATION_TYPE":"U","NORAD_CAT_ID":49083,"ELEMENT_SET_NO":999,"REV_AT_EPOCH":20004,"BSTAR":-0.00082723646,"MEAN_MOTION_DOT":-2.85e-6,"MEAN_MOTION_DDOT":0},{"OBJECT_NAME":"ONEWEB-0295","OBJECT_ID":"2021-075K","EPOCH":"2025-09-26T22:00:33.215040","MEAN_MOTION":13.17648618,"ECCENTRICITY":0.00020366,"INCLINATION":87.907,"RA_OF_ASC_NODE":58.2391,"ARG_OF_PERICENTER":94.1335,"MEAN_ANOMALY":266.003,"EPHEMERIS_TYPE":0,"CLASSIFICATION_TYPE":"U","NORAD_CAT_ID":49084,"ELEMENT_SET_NO":999,"REV_AT_EPOCH":19892,"BSTAR":-8.8229611e-5,"MEAN_MOTION_DOT":-2.1e-7,"MEAN_MOTION_DDOT":0}]
